[{"OBJECT_NAME":"ARCSTONE","OBJECT_ID":"2025-135N","EPOCH":"2026-03-09T21:21:29.017152","MEAN_MOTION":15.28638458,"ECCENTRICITY":0.00041199,"INCLINATION":97.4495,"RA_OF_ASC_NODE":185.9194,"ARG_OF_PERICENTER":166.7863,"MEAN_ANOMALY":193.3485,"EPHEMERIS_TYPE":0,"CLASSIFICATION_TYPE":"U","NORAD_CAT_ID":64540,"ELEMENT_SET_NO":999,"REV_AT_EPOCH":3984,"BSTAR":0.00094899777,"MEAN_MOTION_DOT":0.00026427,"MEAN_MOTION_DDOT":0},{"OBJECT_NAME":"STARLINK-35680","OBJECT_ID":"2025-270Y","EPOCH":"2026-03-09T22:29:35.759616","MEAN_MOTION":15.27608853,"ECCENTRICITY":0.00035908,"INCLINATION":43.0043,"RA_OF_ASC_NODE":54.7886,"ARG_OF_PERICENTER":302.0404,"MEAN_ANOMALY":58.0099,"EPHEMERIS_TYPE":0,"CLASSIFICATION_TYPE":"U","NORAD_CAT_ID":66610,"ELEMENT_SET_NO":999,"REV_AT_EPOCH":1785,"BSTAR":0.0011909637,"MEAN_MOTION_DOT":0.00032689,"MEAN_MOTION_DDOT":0}]
